start=new Date('2023-06-29T00:00:00.000Z').valueOf();
sats=[{"CLASSIFICATION_TYPE":"U","SEMIMAJOR_AXIS":"6917.881","PERIOD":"95.438","OBJECT_TYPE":"PAYLOAD","EPOCH":"2023-06-28T17:57:30.584160","COUNTRY_CODE":"US","MEAN_MOTION_DOT":"0.00001147","INCLINATION":"53.2172","OBJECT_NAME":"STARLINK-4668","DECAY_DATE":null,"REF_FRAME":"TEME","RA_OF_ASC_NODE":"345.5909","MEAN_ELEMENT_THEORY":"SGP4","MEAN_ANOMALY":"258.2725","MEAN_MOTION_DDOT":"0.0000000000000","OBJECT_ID":"2022-104J","SITE":"AFETR","GP_ID":"234611817","REV_AT_EPOCH":"4623","LAUNCH_DATE":"2022-08-28","ELEMENT_SET_NO":"999","ECCENTRICITY":"0.00007450","TLE_LINE2":"2 53596  53.2172 345.5909 0000745 101.8351 258.2725 15.08839815 46234","TLE_LINE1":"1 53596U 22104J   23179.74827065  .00001147  00000-0  90099-4 0  9992","ARG_OF_PERICENTER":"101.8351","APOAPSIS":"540.261","CENTER_NAME":"EARTH","PERIAPSIS":"539.231","FILE":"3945198","RCS_SIZE":"LARGE","TIME_SYSTEM":"UTC","EPHEMERIS_TYPE":"0","NORAD_CAT_ID":"53596","BSTAR":"0.00009009900000","MEAN_MOTION":"15.08839815"},{"REV_AT_EPOCH":"4623","ELEMENT_SET_NO":"999","LAUNCH_DATE":"2022-08-28","ECCENTRICITY":"0.00009830","TLE_LINE2":"2 53597  53.2175 345.6102 0000983  81.1543 278.9561 15.08846680 46236","APOAPSIS":"540.405","TLE_LINE1":"1 53597U 22104K   23179.75195198  .00003136  00000-0  21500-3 0  9999","ARG_OF_PERICENTER":"81.1543","CENTER_NAME":"EARTH","PERIAPSIS":"539.045","RCS_SIZE":"LARGE","FILE":"3945198","EPHEMERIS_TYPE":"0","TIME_SYSTEM":"UTC","NORAD_CAT_ID":"53597","BSTAR":"0.00021500000000","MEAN_MOTION":"15.08846680","CLASSIFICATION_TYPE":"U","OBJECT_TYPE":"PAYLOAD","SEMIMAJOR_AXIS":"6917.860","PERIOD":"95.437","EPOCH":"2023-06-28T18:02:48.651072","COUNTRY_CODE":"US","MEAN_MOTION_DOT":"0.00003136","OBJECT_NAME":"STARLINK-4682","INCLINATION":"53.2175","DECAY_DATE":null,"REF_FRAME":"TEME","MEAN_ELEMENT_THEORY":"SGP4","RA_OF_ASC_NODE":"345.6102","OBJECT_ID":"2022-104K","MEAN_MOTION_DDOT":"0.0000000000000","MEAN_ANOMALY":"278.9561","GP_ID":"234611316","SITE":"AFETR"},{"SEMIMAJOR_AXIS":"6917.868","PERIOD":"95.437","OBJECT_TYPE":"PAYLOAD","CLASSIFICATION_TYPE":"U","OBJECT_NAME":"STARLINK-4676","MEAN_MOTION_DOT":"0.00001969","INCLINATION":"53.2183","COUNTRY_CODE":"US","EPOCH":"2023-06-28T17:46:53.910336","RA_OF_ASC_NODE":"345.5433","MEAN_ELEMENT_THEORY":"SGP4","REF_FRAME":"TEME","DECAY_DATE":null,"SITE":"AFETR","GP_ID":"234611812","MEAN_ANOMALY":"281.1268","OBJECT_ID":"2022-104L","MEAN_MOTION_DDOT":"0.0000000000000","TLE_LINE2":"2 53598  53.2183 345.5433 0001023  78.9839 281.1268 15.08844187 46230","ECCENTRICITY":"0.00010230","ELEMENT_SET_NO":"999","LAUNCH_DATE":"2022-08-28","REV_AT_EPOCH":"4623","CENTER_NAME":"EARTH","ARG_OF_PERICENTER":"78.9839","TLE_LINE1":"1 53598U 22104L   23179.74090174  .00001969  00000-0  14173-3 0  9997","APOAPSIS":"540.440","FILE":"3945198","RCS_SIZE":"LARGE","PERIAPSIS":"539.025","MEAN_MOTION":"15.08844187","BSTAR":"0.00014173000000","NORAD_CAT_ID":"53598","EPHEMERIS_TYPE":"0","TIME_SYSTEM":"UTC"},{"MEAN_MOTION_DOT":"0.00000569","OBJECT_NAME":"STARLINK-4677","INCLINATION":"53.2190","COUNTRY_CODE":"US","EPOCH":"2023-06-28T17:36:16.969536","PERIOD":"95.437","SEMIMAJOR_AXIS":"6917.875","OBJECT_TYPE":"PAYLOAD","CLASSIFICATION_TYPE":"U","SITE":"AFETR","GP_ID":"234611598","MEAN_ANOMALY":"267.7363","MEAN_MOTION_DDOT":"0.0000000000000","OBJECT_ID":"2022-104N","RA_OF_ASC_NODE":"345.4976","MEAN_ELEMENT_THEORY":"SGP4","REF_FRAME":"TEME","DECAY_DATE":null,"CENTER_NAME":"EARTH","TLE_LINE1":"1 53600U 22104N   23179.73352974  .00000569  00000-0  53841-4 0  9990","ARG_OF_PERICENTER":"92.3735","APOAPSIS":"540.378","ECCENTRICITY":"0.00009220","TLE_LINE2":"2 53600  53.2190 345.4976 0000922  92.3735 267.7363 15.08841618 46642","ELEMENT_SET_NO":"999","LAUNCH_DATE":"2022-08-28","REV_AT_EPOCH":"4664","MEAN_MOTION":"15.08841618","BSTAR":"0.00005384100000","NORAD_CAT_ID":"53600","EPHEMERIS_TYPE":"0","TIME_SYSTEM":"UTC","FILE":"3945254","RCS_SIZE":"LARGE","PERIAPSIS":"539.103"},{"PERIAPSIS":"539.050","FILE":"3944725","RCS_SIZE":"LARGE","NORAD_CAT_ID":"53601","TIME_SYSTEM":"UTC","EPHEMERIS_TYPE":"0","MEAN_MOTION":"15.08844174","BSTAR":"0.00007651700000","ELEMENT_SET_NO":"999","LAUNCH_DATE":"2022-08-28","REV_AT_EPOCH":"4608","TLE_LINE2":"2 53601  53.2182 350.0259 0000987  88.6971 271.4134 15.08844174 46087","ECCENTRICITY":"0.00009870","CENTER_NAME":"EARTH","APOAPSIS":"540.415","ARG_OF_PERICENTER":"88.6971","TLE_LINE1":"1 53601U 22104P   23178.75098349  .00000930  00000-0  76517-4 0  9992","DECAY_DATE":null,"MEAN_ELEMENT_THEORY":"SGP4","RA_OF_ASC_NODE":"350.0259","REF_FRAME":"TEME","GP_ID":"234599729","SITE":"AFETR","OBJECT_ID":"2022-104P","MEAN_MOTION_DDOT":"0.0000000000000","MEAN_ANOMALY":"271.4134","CLASSIFICATION_TYPE":"U","OBJECT_TYPE":"PAYLOAD","PERIOD":"95.437","SEMIMAJOR_AXIS":"6917.868","COUNTRY_CODE":"US","EPOCH":"2023-06-27T18:01:24.973536","INCLINATION":"53.2182","MEAN_MOTION_DOT":"0.00000930","OBJECT_NAME":"STARLINK-4675"},{"REF_FRAME":"TEME","RA_OF_ASC_NODE":"340.6250","MEAN_ELEMENT_THEORY":"SGP4","DECAY_DATE":null,"MEAN_ANOMALY":"269.1127","OBJECT_ID":"2022-104Q","MEAN_MOTION_DDOT":"0.0000000000000","SITE":"AFETR","GP_ID":"234611322","PERIOD":"95.438","SEMIMAJOR_AXIS":"6917.883","OBJECT_TYPE":"PAYLOAD","CLASSIFICATION_TYPE":"U","MEAN_MOTION_DOT":"0.00001731","OBJECT_NAME":"STARLINK-4648","INCLINATION":"53.2181","EPOCH":"2023-06-28T18:00:49.897728","COUNTRY_CODE":"US","FILE":"3945199","RCS_SIZE":"LARGE","PERIAPSIS":"539.110","BSTAR":"0.00012680000000","MEAN_MOTION":"15.08839276","TIME_SYSTEM":"UTC","EPHEMERIS_TYPE":"0","NORAD_CAT_ID":"53602","ECCENTRICITY":"0.00009210","TLE_LINE2":"2 53602  53.2181 340.6250 0000921  90.9971 269.1127 15.08839276 46305","REV_AT_EPOCH":"4630","ELEMENT_SET_NO":"999","LAUNCH_DATE":"2022-08-28","TLE_LINE1":"1 53602U 22104Q   23179.75057752  .00001731  00000-0  12680-3 0  9997","ARG_OF_PERICENTER":"90.9971","APOAPSIS":"540.385","CENTER_NAME":"EARTH"},{"OBJECT_ID":"2022-104R","MEAN_MOTION_DDOT":"0.0000000000000","MEAN_ANOMALY":"278.8869","GP_ID":"234605713","SITE":"AFETR","REF_FRAME":"TEME","MEAN_ELEMENT_THEORY":"SGP4","RA_OF_ASC_NODE":"342.2468","DECAY_DATE":null,"OBJECT_NAME":"STARLINK-4692","MEAN_MOTION_DOT":"0.00001540","INCLINATION":"53.2192","EPOCH":"2023-06-28T10:35:44.570976","COUNTRY_CODE":"US","OBJECT_TYPE":"PAYLOAD","PERIOD":"95.438","SEMIMAJOR_AXIS":"6917.889","CLASSIFICATION_TYPE":"U","BSTAR":"0.00011481000000","MEAN_MOTION":"15.08837205","EPHEMERIS_TYPE":"0","TIME_SYSTEM":"UTC","NORAD_CAT_ID":"53603","RCS_SIZE":"LARGE","FILE":"3944958","PERIAPSIS":"539.052","APOAPSIS":"540.456","TLE_LINE1":"1 53603U 22104R   23179.44148809  .00001540  00000-0  11481-3 0  9994","ARG_OF_PERICENTER":"81.2238","CENTER_NAME":"EARTH","TLE_LINE2":"2 53603  53.2192 342.2468 0001015  81.2238 278.8869 15.08837205 46255","ECCENTRICITY":"0.00010150","REV_AT_EPOCH":"4625","ELEMENT_SET_NO":"999","LAUNCH_DATE":"2022-08-28"},{"MEAN_MOTION":"15.08834843","BSTAR":"0.00010998000000","NORAD_CAT_ID":"53604","TIME_SYSTEM":"UTC","EPHEMERIS_TYPE":"0","RCS_SIZE":"LARGE","FILE":"3944958","PERIAPSIS":"538.939","CENTER_NAME":"EARTH","APOAPSIS":"540.583","TLE_LINE1":"1 53604U 22104S   23179.41665224  .00001463  00000-0  10998-3 0  9993","ARG_OF_PERICENTER":"79.8799","TLE_LINE2":"2 53604  53.2178 342.0900 0001188  79.8799 280.2328 15.08834843 46257","ECCENTRICITY":"0.00011880","LAUNCH_DATE":"2022-08-28","ELEMENT_SET_NO":"999","REV_AT_EPOCH":"4625","GP_ID":"234606023","SITE":"AFETR","OBJECT_ID":"2022-104S","MEAN_MOTION_DDOT":"0.0000000000000","MEAN_ANOMALY":"280.2328","MEAN_ELEMENT_THEORY":"SGP4","RA_OF_ASC_NODE":"342.0900","REF_FRAME":"TEME","DECAY_DATE":null,"INCLINATION":"53.2178","MEAN_MOTION_DOT":"0.00001463","OBJECT_NAME":"STARLINK-4690","COUNTRY_CODE":"US","EPOCH":"2023-06-28T09:59:58.753536","OBJECT_TYPE":"PAYLOAD","PERIOD":"95.438","SEMIMAJOR_AXIS":"6917.896","CLASSIFICATION_TYPE":"U"},{"DECAY_DATE":null,"REF_FRAME":"TEME","RA_OF_ASC_NODE":"347.8996","MEAN_ELEMENT_THEORY":"SGP4","MEAN_ANOMALY":"271.6308","OBJECT_ID":"2022-104T","MEAN_MOTION_DDOT":"0.0000000000000","SITE":"AFETR","GP_ID":"234605712","CLASSIFICATION_TYPE":"U","SEMIMAJOR_AXIS":"6917.867","PERIOD":"95.437","OBJECT_TYPE":"PAYLOAD","EPOCH":"2023-06-28T04:58:30.050400","COUNTRY_CODE":"US","MEAN_MOTION_DOT":"0.00000642","OBJECT_NAME":"STARLINK-4693","INCLINATION":"53.2181","PERIAPSIS":"539.081","FILE":"3944958","RCS_SIZE":"LARGE","EPHEMERIS_TYPE":"0","TIME_SYSTEM":"UTC","NORAD_CAT_ID":"53605","BSTAR":"0.00005843100000","MEAN_MOTION":"15.08844536","REV_AT_EPOCH":"4615","LAUNCH_DATE":"2022-08-28","ELEMENT_SET_NO":"999","TLE_LINE2":"2 53605  53.2181 347.8996 0000941  88.4792 271.6308 15.08844536 46156","ECCENTRICITY":"0.00009410","ARG_OF_PERICENTER":"88.4792","TLE_LINE1":"1 53605U 22104T   23179.20729225  .00000642  00000-0  58431-4 0  9996","APOAPSIS":"540.382","CENTER_NAME":"EARTH"},{"DECAY_DATE":null,"MEAN_ELEMENT_THEORY":"SGP4","RA_OF_ASC_NODE":"336.0193","REF_FRAME":"TEME","GP_ID":"234611820","SITE":"AFETR","MEAN_MOTION_DDOT":"0.0000000000000","OBJECT_ID":"2022-104U","MEAN_ANOMALY":"272.0040","CLASSIFICATION_TYPE":"U","OBJECT_TYPE":"PAYLOAD","PERIOD":"95.437","SEMIMAJOR_AXIS":"6917.865","COUNTRY_CODE":"US","EPOCH":"2023-06-28T16:49:58.822464","MEAN_MOTION_DOT":"0.00001905","OBJECT_NAME":"STARLINK-4590","INCLINATION":"53.2172","PERIAPSIS":"539.013","RCS_SIZE":"LARGE","FILE":"3945199","NORAD_CAT_ID":"53606","EPHEMERIS_TYPE":"0","TIME_SYSTEM":"UTC","MEAN_MOTION":"15.08845140","BSTAR":"0.00013773000000","LAUNCH_DATE":"2022-08-28","ELEMENT_SET_NO":"999","REV_AT_EPOCH":"4636","ECCENTRICITY":"0.00010360","TLE_LINE2":"2 53606  53.2172 336.0193 0001036  88.1071 272.0040 15.08845140 46362","CENTER_NAME":"EARTH","APOAPSIS":"540.446","ARG_OF_PERICENTER":"88.1071","TLE_LINE1":"1 53606U 22104U   23179.70137526  .00001905  00000-0  13773-3 0  9991"}];
